{"fetched_at":"2026-07-19T07:05:37.662Z","source":"https://celestrak.org/NORAD/elements/gp.php?NAME=SPOT&FORMAT=JSON","constellation":"spot","records":[{"OBJECT_NAME":"SPOT 6","OBJECT_ID":"2012-047A","EPOCH":"2026-07-18T19:45:49.441824","CLASSIFICATION_TYPE":"U","MEAN_MOTION":14.58539317,"ECCENTRICITY":0.0001108,"INCLINATION":98.2102,"RA_OF_ASC_NODE":266.7595,"ARG_OF_PERICENTER":89.7528,"MEAN_ANOMALY":270.3798,"EPHEMERIS_TYPE":0,"NORAD_CAT_ID":38755,"ELEMENT_SET_NO":999,"REV_AT_EPOCH":73766,"BSTAR":3.3958e-7,"MEAN_MOTION_DOT":-4.4e-7,"MEAN_MOTION_DDOT":0},{"OBJECT_NAME":"SPOT 7","OBJECT_ID":"2014-034A","EPOCH":"2026-07-18T19:45:26.489664","CLASSIFICATION_TYPE":"U","MEAN_MOTION":14.60982644,"ECCENTRICITY":0.0001628,"INCLINATION":98.0608,"RA_OF_ASC_NODE":261.4974,"ARG_OF_PERICENTER":94.7059,"MEAN_ANOMALY":265.4328,"EPHEMERIS_TYPE":0,"NORAD_CAT_ID":40053,"ELEMENT_SET_NO":999,"REV_AT_EPOCH":64175,"BSTAR":0.000044225,"MEAN_MOTION_DOT":0.00000171,"MEAN_MOTION_DDOT":0}]}
