SPOT 6                  
1 38755U 12047A   26199.82348891 -.00000044  00000+0  33958-6 0  9994
2 38755  98.2102 266.7595 0001108  89.7528 270.3798 14.58539317737662
SPOT 7                  
1 40053U 14034A   26199.82322326  .00000171  00000+0  44225-4 0  9998
2 40053  98.0608 261.4974 0001628  94.7059 265.4328 14.60982644641756
